{"type": "FeatureCollection", "meta": {"fuente": "Perú-maps · límites administrativos del Perú", "url": "https://github.com/Rodasluis/Peru-maps", "nota": "Límites no oficiales, solo para uso estadístico. Simplificados para visualización web.", "tolerancia_grados": 0.02}, "features": [{"type": "Feature", "properties": {"dep": "Amazonas", "u": "01"}, "geometry": {"type": "Polygon", "coordinates": [[[-77.697, -5.412], [-77.743, -5.406], [-77.768, -5.438], [-77.736, -5.609], [-77.776, -5.708], [-77.761, -5.825], [-77.682, -5.849], [-77.652, -5.935], [-77.669, -5.98], [-77.538, -6.063], [-77.474, -6.0], [-77.432, -6.062], [-77.395, -6.039], [-77.346, -6.114], [-77.224, -6.146], [-77.212, -6.214], [-77.132, -6.323], [-77.172, -6.381], [-77.287, -6.331], [-77.273, -6.407], [-77.345, -6.547], [-77.394, -6.603], [-77.438, -6.603], [-77.382, -6.698], [-77.407, -6.727], [-77.456, -6.681], [-77.544, -6.677], [-77.612, -6.612], [-77.688, -6.677], [-77.74, -6.647], [-77.732, -6.783], [-77.765, -6.798], [-77.707, -6.909], [-77.759, -6.965], [-77.779, -6.941], [-77.93, -6.986], [-78.002, -6.969], [-78.045, -6.692], [-78.107, -6.642], [-78.152, -6.5], [-78.334, -6.351], [-78.37, -6.239], [-78.51, -6.078], [-78.601, -6.065], [-78.696, -5.889], [-78.692, -5.751], [-78.651, -5.726], [-78.686, -5.699], [-78.511, -5.443], [-78.54, -5.366], [-78.684, -5.267], [-78.703, -5.208], [-78.701, -5.104], [-78.64, -5.033], [-78.678, -4.968], [-78.621, -4.769], [-78.639, -4.655], [-78.706, -4.624], [-78.656, -4.585], [-78.661, -4.53], [-78.601, -4.429], [-78.634, -4.415], [-78.652, -4.333], [-78.541, -4.074], [-78.566, -3.993], [-78.489, -3.934], [-78.466, -3.829], [-78.409, -3.782], [-78.423, -3.693], [-78.393, -3.677], [-78.346, -3.382], [-78.246, -3.402], [-78.218, -3.508], [-78.149, -3.481], [-78.196, -3.361], [-78.137, -3.326], [-77.941, -3.065], [-77.809, -2.986], [-77.773, -3.429], [-77.716, -3.542], [-77.62, -3.622], [-77.616, -3.708], [-77.652, -3.782], [-77.563, -3.875], [-77.538, -3.962], [-77.586, -4.251], [-77.568, -4.421], [-77.589, -4.48], [-77.655, -4.519], [-77.672, -4.629], [-77.79, -4.747], [-77.799, -4.825], [-77.758, -4.95], [-77.826, -5.035], [-77.821, -5.089], [-77.696, -5.164], [-77.74, -5.213], [-77.684, -5.296], [-77.697, -5.412]]]}}, {"type": "Feature", "properties": {"dep": "Ancash", "u": "02"}, "geometry": {"type": "Polygon", "coordinates": [[[-77.313, -8.53], [-77.293, -8.638], [-77.261, -8.649], [-77.248, -8.727], [-77.11, -8.97], [-76.98, -9.063], [-76.79, -9.136], [-76.735, -9.209], [-76.758, -9.362], [-76.847, -9.264], [-76.935, -9.399], [-76.955, -9.56], [-77.049, -9.65], [-76.982, -9.754], [-76.946, -9.703], [-76.904, -9.765], [-76.814, -9.96], [-76.807, -10.084], [-76.915, -10.12], [-76.906, -10.274], [-76.965, -10.305], [-77.002, -10.282], [-77.025, -10.328], [-77.072, -10.338], [-77.175, -10.465], [-77.191, -10.552], [-77.292, -10.557], [-77.395, -10.662], [-77.394, -10.717], [-77.522, -10.735], [-77.591, -10.786], [-77.563, -10.709], [-77.589, -10.646], [-77.574, -10.588], [-77.62, -10.614], [-77.645, -10.583], [-77.601, -10.509], [-77.746, -10.552], [-77.687, -10.434], [-77.598, -10.38], [-77.619, -10.328], [-77.753, -10.322], [-77.75, -10.407], [-77.798, -10.476], [-77.771, -10.572], [-77.84, -10.568], [-77.886, -10.612], [-78.011, -10.375], [-78.055, -10.346], [-78.102, -10.2], [-78.185, -10.109], [-78.175, -10.046], [-78.244, -9.868], [-78.226, -9.795], [-78.367, -9.629], [-78.404, -9.476], [-78.38, -9.445], [-78.433, -9.389], [-78.409, -9.364], [-78.526, -9.274], [-78.492, -9.251], [-78.498, -9.188], [-78.562, -9.182], [-78.554, -9.235], [-78.609, -9.177], [-78.565, -9.165], [-78.562, -9.117], [-78.63, -9.073], [-78.622, -9.018], [-78.658, -8.986], [-78.59, -8.943], [-78.552, -8.775], [-78.204, -8.629], [-78.217, -8.558], [-78.158, -8.48], [-78.119, -8.313], [-78.019, -8.224], [-77.933, -8.197], [-77.896, -8.062], [-77.786, -8.079], [-77.647, -8.05], [-77.619, -8.08], [-77.636, -8.109], [-77.557, -8.194], [-77.575, -8.23], [-77.491, -8.283], [-77.4, -8.482], [-77.313, -8.53]]]}}, {"type": "Feature", "properties": {"dep": "Apurimac", "u": "03"}, "geometry": {"type": "Polygon", "coordinates": [[[-73.209, -13.417], [-73.176, -13.451], [-73.144, -13.419], [-73.097, -13.449], [-72.976, -13.388], [-72.897, -13.388], [-72.593, -13.562], [-72.421, -13.606], [-72.402, -13.66], [-72.312, -13.708], [-72.245, -13.687], [-72.132, -13.787], [-72.056, -13.93], [-72.057, -14.129], [-72.095, -14.174], [-72.076, -14.207], [-72.24, -14.348], [-72.25, -14.403], [-72.358, -14.436], [-72.492, -14.534], [-72.472, -14.661], [-72.592, -14.714], [-72.611, -14.676], [-72.691, -14.689], [-72.726, -14.644], [-72.79, -14.65], [-72.847, -14.76], [-72.867, -14.708], [-73.042, -14.623], [-73.042, -14.656], [-73.097, -14.65], [-73.106, -14.691], [-73.153, -14.674], [-73.284, -14.734], [-73.364, -14.682], [-73.485, -14.843], [-73.55, -14.801], [-73.577, -14.714], [-73.51, -14.65], [-73.534, -14.584], [-73.507, -14.544], [-73.582, -14.416], [-73.512, -14.268], [-73.743, -13.787], [-73.74, -13.756], [-73.67, -13.735], [-73.805, -13.616], [-73.847, -13.401], [-73.806, -13.312], [-73.824, -13.25], [-73.751, -13.172], [-73.728, -13.268], [-73.574, -13.339], [-73.481, -13.431], [-73.347, -13.435], [-73.234, -13.477], [-73.209, -13.417]]]}}, {"type": "Feature", "properties": {"dep": "Arequipa", "u": "04"}, "geometry": {"type": "Polygon", "coordinates": [[[-71.037, -15.412], [-70.993, -15.461], [-71.018, -15.5], [-71.005, -15.567], [-70.924, -15.633], [-70.9, -15.714], [-70.942, -15.775], [-70.82, -15.978], [-70.805, -16.055], [-70.857, -16.056], [-70.895, -16.105], [-70.844, -16.236], [-70.881, -16.285], [-70.986, -16.31], [-70.964, -16.479], [-71.011, -16.498], [-71.048, -16.455], [-71.242, -16.463], [-71.289, -16.726], [-71.326, -16.752], [-71.369, -16.72], [-71.425, -16.741], [-71.424, -16.92], [-71.465, -16.954], [-71.404, -16.958], [-71.386, -17.021], [-71.339, -17.022], [-71.302, -17.094], [-71.491, -17.285], [-71.83, -17.177], [-72.023, -17.023], [-72.112, -17.016], [-72.12, -16.97], [-72.288, -16.875], [-72.31, -16.807], [-72.456, -16.7], [-72.752, -16.638], [-72.92, -16.518], [-73.049, -16.5], [-73.209, -16.4], [-73.292, -16.405], [-73.314, -16.339], [-73.451, -16.281], [-73.62, -16.23], [-73.7, -16.242], [-73.728, -16.195], [-74.018, -16.036], [-74.054, -15.955], [-74.279, -15.839], [-74.393, -15.829], [-74.472, -15.719], [-74.854, -15.573], [-74.888, -15.524], [-75.073, -15.443], [-74.929, -15.192], [-74.762, -15.098], [-74.714, -15.139], [-74.629, -15.124], [-74.402, -15.179], [-74.388, -15.252], [-74.415, -15.299], [-74.31, -15.359], [-74.329, -15.394], [-74.3, -15.478], [-74.166, -15.484], [-74.151, -15.429], [-74.065, -15.402], [-74.037, -15.456], [-74.079, -15.516], [-74.063, -15.63], [-73.87, -15.429], [-73.866, -15.325], [-73.778, -15.339], [-73.686, -15.438], [-73.44, -15.356], [-73.392, -15.399], [-73.275, -15.393], [-73.285, -15.295], [-73.172, -15.306], [-73.111, -15.186], [-73.023, -15.132], [-72.983, -14.984], [-73.031, -14.9], [-73.003, -14.815], [-72.93, -14.758], [-72.843, -14.758], [-72.79, -14.65], [-72.726, -14.644], [-72.691, -14.689], [-72.611, -14.676], [-72.592, -14.714], [-72.477, -14.658], [-72.487, -14.741], [-72.417, -14.823], [-72.315, -14.834], [-72.145, -14.778], [-72.063, -14.888], [-72.025, -14.83], [-72.04, -14.688], [-71.988, -14.633], [-71.93, -14.69], [-71.958, -14.733], [-71.924, -14.79], [-71.877, -14.8], [-71.861, -14.881], [-71.746, -14.94], [-71.765, -15.008], [-71.849, -15.045], [-71.838, -15.075], [-71.671, -15.09], [-71.613, -15.145], [-71.572, -15.062], [-71.486, -15.059], [-71.505, -14.976], [-71.448, -14.979], [-71.322, -15.119], [-71.208, -15.05], [-71.144, -15.121], [-71.185, -15.169], [-71.16, -15.208], [-71.202, -15.245], [-71.15, -15.357], [-71.174, -15.424], [-71.088, -15.458], [-71.037, -15.412]], [[-71.146, -16.324], [-71.202, -16.373], [-71.095, -16.409], [-71.102, -16.341], [-71.146, -16.324]]]}}, {"type": "Feature", "properties": {"dep": "Ayacucho", "u": "05"}, "geometry": {"type": "Polygon", "coordinates": [[[-73.981, -12.244], [-73.97, -12.348], [-73.887, -12.405], [-73.8, -12.615], [-73.757, -12.651], [-73.726, -12.637], [-73.582, -12.859], [-73.524, -12.899], [-73.53, -12.932], [-73.496, -12.933], [-73.53, -12.985], [-73.477, -13.001], [-73.49, -13.067], [-73.449, -13.08], [-73.41, -13.211], [-73.209, -13.43], [-73.234, -13.477], [-73.347, -13.435], [-73.481, -13.431], [-73.574, -13.339], [-73.728, -13.268], [-73.751, -13.172], [-73.824, -13.25], [-73.806, -13.312], [-73.847, -13.401], [-73.805, -13.616], [-73.67, -13.735], [-73.74, -13.756], [-73.743, -13.787], [-73.512, -14.268], [-73.582, -14.416], [-73.507, -14.544], [-73.534, -14.584], [-73.51, -14.65], [-73.574, -14.695], [-73.565, -14.776], [-73.466, -14.84], [-73.364, -14.682], [-73.284, -14.734], [-73.153, -14.674], [-73.106, -14.691], [-73.097, -14.65], [-73.042, -14.656], [-73.042, -14.623], [-72.867, -14.708], [-72.847, -14.76], [-72.93, -14.758], [-73.003, -14.815], [-73.031, -14.9], [-72.983, -14.984], [-73.023, -15.132], [-73.111, -15.186], [-73.172, -15.306], [-73.285, -15.295], [-73.275, -15.393], [-73.392, -15.399], [-73.44, -15.356], [-73.686, -15.438], [-73.778, -15.339], [-73.866, -15.325], [-73.87, -15.429], [-74.069, -15.63], [-74.079, -15.516], [-74.037, -15.456], [-74.065, -15.402], [-74.151, -15.429], [-74.166, -15.484], [-74.3, -15.478], [-74.329, -15.394], [-74.31, -15.359], [-74.415, -15.299], [-74.388, -15.252], [-74.402, -15.179], [-74.753, -15.113], [-74.665, -15.05], [-74.646, -14.978], [-74.685, -14.929], [-74.662, -14.898], [-74.682, -14.853], [-74.755, -14.834], [-74.715, -14.817], [-74.765, -14.79], [-74.716, -14.71], [-74.803, -14.752], [-74.827, -14.734], [-74.847, -14.666], [-74.788, -14.616], [-74.86, -14.607], [-74.884, -14.545], [-74.959, -14.606], [-75.056, -14.627], [-75.098, -14.485], [-75.053, -14.431], [-75.14, -14.416], [-75.094, -14.312], [-75.032, -14.266], [-75.091, -14.215], [-75.029, -14.072], [-74.898, -14.104], [-74.861, -14.067], [-74.825, -14.092], [-74.759, -14.079], [-74.785, -13.992], [-74.754, -13.737], [-74.771, -13.606], [-74.902, -13.466], [-74.898, -13.395], [-74.76, -13.325], [-74.718, -13.364], [-74.633, -13.345], [-74.686, -13.286], [-74.573, -13.185], [-74.398, -13.169], [-74.411, -13.079], [-74.38, -13.024], [-74.272, -13.069], [-74.297, -12.935], [-74.33, -12.915], [-74.33, -12.836], [-74.295, -12.83], [-74.285, -12.788], [-74.349, -12.718], [-74.324, -12.604], [-74.387, -12.567], [-74.409, -12.452], [-74.518, -12.44], [-74.58, -12.323], [-74.555, -12.288], [-74.506, -12.312], [-74.469, -12.271], [-74.416, -12.305], [-74.385, -12.272], [-74.387, -12.188], [-74.349, -12.168], [-74.322, -12.23], [-74.291, -12.223], [-74.182, -12.317], [-74.121, -12.334], [-74.097, -12.284], [-74.04, -12.261], [-74.002, -12.284], [-73.981, -12.244]], [[-73.639, -15.29], [-73.75, -15.267], [-73.714, -15.325], [-73.672, -15.329], [-73.639, -15.29]]]}}, {"type": "Feature", "properties": {"dep": "Cajamarca", "u": "06"}, "geometry": {"type": "Polygon", "coordinates": [[[-77.994, -6.969], [-77.926, -7.155], [-77.849, -7.236], [-77.825, -7.378], [-77.743, -7.472], [-77.857, -7.524], [-77.868, -7.583], [-77.923, -7.6], [-77.913, -7.625], [-77.963, -7.674], [-78.081, -7.696], [-78.128, -7.653], [-78.171, -7.713], [-78.219, -7.724], [-78.221, -7.763], [-78.281, -7.747], [-78.276, -7.72], [-78.348, -7.686], [-78.383, -7.63], [-78.331, -7.496], [-78.416, -7.485], [-78.491, -7.555], [-78.625, -7.549], [-78.65, -7.527], [-78.63, -7.446], [-78.662, -7.406], [-78.78, -7.424], [-78.79, -7.395], [-78.887, -7.484], [-78.851, -7.523], [-78.913, -7.551], [-78.954, -7.651], [-78.992, -7.661], [-79.041, -7.6], [-79.065, -7.473], [-79.155, -7.439], [-79.194, -7.374], [-79.232, -7.391], [-79.367, -7.33], [-79.269, -7.278], [-79.252, -7.198], [-79.331, -7.076], [-79.297, -7.0], [-79.311, -6.901], [-79.121, -6.777], [-79.143, -6.7], [-79.188, -6.717], [-79.229, -6.671], [-79.291, -6.677], [-79.362, -6.636], [-79.336, -6.602], [-79.37, -6.521], [-79.421, -6.535], [-79.453, -6.399], [-79.423, -6.31], [-79.354, -6.304], [-79.249, -6.224], [-79.273, -6.148], [-79.234, -6.093], [-79.182, -6.089], [-79.176, -6.041], [-79.204, -6.024], [-79.224, -6.055], [-79.3, -5.985], [-79.317, -6.043], [-79.349, -5.98], [-79.418, -6.003], [-79.421, -5.972], [-79.335, -5.894], [-79.399, -5.771], [-79.371, -5.603], [-79.399, -5.539], [-79.276, -5.52], [-79.378, -5.191], [-79.273, -5.059], [-79.228, -5.05], [-79.208, -4.964], [-79.075, -4.972], [-79.015, -5.015], [-78.972, -4.895], [-78.892, -4.887], [-78.915, -4.781], [-78.863, -4.676], [-78.805, -4.638], [-78.706, -4.624], [-78.639, -4.655], [-78.621, -4.769], [-78.678, -4.968], [-78.64, -5.033], [-78.701, -5.104], [-78.709, -5.18], [-78.684, -5.267], [-78.54, -5.366], [-78.512, -5.431], [-78.558, -5.496], [-78.55, -5.533], [-78.686, -5.699], [-78.651, -5.726], [-78.692, -5.751], [-78.696, -5.889], [-78.601, -6.065], [-78.51, -6.078], [-78.37, -6.239], [-78.334, -6.351], [-78.152, -6.5], [-78.107, -6.642], [-78.045, -6.692], [-77.994, -6.969]]]}}, {"type": "Feature", "properties": {"dep": "Callao", "u": "07"}, "geometry": {"type": "Polygon", "coordinates": [[[-77.078, -12.047], [-77.17, -12.075], [-77.133, -11.969], [-77.188, -11.829], [-77.135, -11.818], [-77.089, -11.899], [-77.096, -11.95], [-77.129, -11.938], [-77.118, -11.995], [-77.078, -12.047]]]}}, {"type": "Feature", "properties": {"dep": "Cusco", "u": "08"}, "geometry": {"type": "Polygon", "coordinates": [[[-72.24, -11.352], [-72.293, -11.433], [-72.308, -11.588], [-72.39, -11.651], [-72.425, -11.733], [-72.371, -11.785], [-72.39, -11.828], [-72.332, -11.856], [-72.34, -11.966], [-72.259, -12.006], [-72.269, -12.054], [-72.094, -12.085], [-72.106, -12.238], [-71.946, -12.33], [-71.976, -12.399], [-72.059, -12.437], [-72.079, -12.499], [-71.981, -12.58], [-71.956, -12.655], [-71.979, -12.683], [-71.747, -12.796], [-71.639, -12.71], [-71.553, -12.708], [-71.416, -12.894], [-71.36, -12.883], [-71.272, -12.962], [-71.161, -12.968], [-71.173, -13.056], [-71.132, -13.22], [-71.041, -13.269], [-71.012, -13.265], [-70.977, -13.17], [-70.887, -13.103], [-70.899, -13.07], [-70.83, -13.067], [-70.763, -13.108], [-70.599, -13.099], [-70.548, -13.154], [-70.395, -13.183], [-70.388, -13.228], [-70.423, -13.255], [-70.345, -13.3], [-70.396, -13.317], [-70.4, -13.372], [-70.45, -13.364], [-70.453, -13.448], [-70.54, -13.533], [-70.544, -13.578], [-70.663, -13.661], [-70.715, -13.662], [-70.735, -13.735], [-70.71, -13.842], [-70.768, -13.814], [-70.828, -13.828], [-70.854, -13.799], [-70.88, -13.818], [-70.81, -13.912], [-70.862, -14.026], [-70.829, -14.076], [-70.79, -14.079], [-70.822, -14.141], [-70.886, -14.171], [-70.881, -14.271], [-70.912, -14.341], [-70.985, -14.379], [-70.963, -14.445], [-70.999, -14.502], [-70.966, -14.568], [-71.118, -14.649], [-71.053, -14.754], [-71.013, -14.74], [-70.975, -14.766], [-71.004, -14.999], [-70.963, -15.216], [-70.985, -15.249], [-70.95, -15.298], [-71.082, -15.457], [-71.174, -15.424], [-71.15, -15.357], [-71.202, -15.245], [-71.16, -15.208], [-71.185, -15.169], [-71.144, -15.121], [-71.208, -15.05], [-71.322, -15.119], [-71.448, -14.979], [-71.505, -14.976], [-71.486, -15.059], [-71.572, -15.062], [-71.613, -15.145], [-71.671, -15.09], [-71.838, -15.075], [-71.849, -15.045], [-71.765, -15.008], [-71.746, -14.94], [-71.861, -14.881], [-71.877, -14.8], [-71.924, -14.79], [-71.958, -14.733], [-71.93, -14.69], [-71.988, -14.633], [-72.044, -14.703], [-72.025, -14.83], [-72.046, -14.887], [-72.131, -14.828], [-72.145, -14.778], [-72.318, -14.834], [-72.469, -14.787], [-72.488, -14.723], [-72.462, -14.606], [-72.492, -14.534], [-72.358, -14.436], [-72.25, -14.403], [-72.24, -14.348], [-72.076, -14.207], [-72.095, -14.174], [-72.057, -14.129], [-72.056, -13.93], [-72.132, -13.787], [-72.245, -13.687], [-72.312, -13.708], [-72.402, -13.66], [-72.421, -13.606], [-72.637, -13.542], [-72.794, -13.456], [-72.799, -13.422], [-72.884, -13.417], [-72.926, -13.383], [-73.097, -13.449], [-73.144, -13.419], [-73.17, -13.452], [-73.188, -13.416], [-73.25, -13.402], [-73.41, -13.211], [-73.449, -13.08], [-73.49, -13.067], [-73.477, -13.001], [-73.53, -12.985], [-73.496, -12.933], [-73.53, -12.932], [-73.524, -12.899], [-73.582, -12.859], [-73.726, -12.637], [-73.757, -12.651], [-73.8, -12.615], [-73.887, -12.405], [-73.97, -12.348], [-73.972, -12.294], [-73.838, -12.243], [-73.705, -12.269], [-73.657, -12.36], [-73.599, -12.386], [-73.574, -12.277], [-73.47, -12.237], [-73.44, -12.152], [-73.362, -12.136], [-73.443, -11.939], [-73.507, -11.865], [-73.578, -11.836], [-73.572, -11.743], [-73.612, -11.675], [-73.56, -11.592], [-73.45, -11.532], [-73.477, -11.459], [-73.346, -11.313], [-73.065, -11.284], [-72.977, -11.212], [-72.932, -11.309], [-72.962, -11.335], [-72.926, -11.327], [-72.933, -11.35], [-72.892, -11.343], [-72.822, -11.39], [-72.712, -11.348], [-72.692, -11.396], [-72.664, -11.387], [-72.61, -11.44], [-72.601, -11.418], [-72.526, -11.439], [-72.498, -11.395], [-72.308, -11.307], [-72.24, -11.352]], [[-71.284, -14.436], [-71.228, -14.5], [-71.167, -14.521], [-71.167, -14.484], [-71.284, -14.436]]]}}, {"type": "Feature", "properties": {"dep": "Huancavelica", "u": "09"}, "geometry": {"type": "Polygon", "coordinates": [[[-74.346, -12.172], [-74.387, -12.188], [-74.385, -12.272], [-74.416, -12.305], [-74.469, -12.271], [-74.506, -12.312], [-74.555, -12.288], [-74.581, -12.333], [-74.507, -12.448], [-74.409, -12.452], [-74.387, -12.567], [-74.324, -12.604], [-74.349, -12.718], [-74.285, -12.788], [-74.295, -12.83], [-74.33, -12.836], [-74.33, -12.915], [-74.297, -12.935], [-74.272, -13.069], [-74.38, -13.024], [-74.411, -13.079], [-74.398, -13.169], [-74.573, -13.185], [-74.686, -13.286], [-74.633, -13.345], [-74.718, -13.364], [-74.76, -13.325], [-74.898, -13.395], [-74.902, -13.466], [-74.771, -13.606], [-74.754, -13.737], [-74.785, -13.992], [-74.76, -14.081], [-74.825, -14.092], [-74.861, -14.067], [-74.898, -14.104], [-75.015, -14.069], [-75.059, -14.13], [-75.109, -14.033], [-75.166, -14.073], [-75.259, -14.043], [-75.232, -14.005], [-75.329, -14.018], [-75.434, -13.914], [-75.55, -13.887], [-75.565, -13.843], [-75.525, -13.813], [-75.555, -13.75], [-75.485, -13.655], [-75.519, -13.603], [-75.466, -13.434], [-75.5, -13.355], [-75.539, -13.405], [-75.599, -13.39], [-75.689, -13.44], [-75.81, -13.389], [-75.788, -13.335], [-75.706, -13.288], [-75.689, -13.214], [-75.719, -13.11], [-75.687, -13.043], [-75.658, -13.082], [-75.629, -13.057], [-75.613, -12.86], [-75.531, -12.822], [-75.507, -12.777], [-75.575, -12.72], [-75.552, -12.681], [-75.58, -12.641], [-75.525, -12.619], [-75.467, -12.683], [-75.461, -12.631], [-75.415, -12.628], [-75.325, -12.487], [-75.216, -12.463], [-75.22, -12.39], [-75.182, -12.36], [-75.154, -12.396], [-75.131, -12.379], [-75.1, -12.251], [-75.049, -12.201], [-75.086, -12.055], [-75.048, -11.999], [-74.837, -12.071], [-74.749, -12.041], [-74.717, -12.059], [-74.658, -11.993], [-74.572, -11.985], [-74.454, -12.034], [-74.346, -12.172]]]}}, {"type": "Feature", "properties": {"dep": "Huanuco", "u": "10"}, "geometry": {"type": "Polygon", "coordinates": [[[-76.002, -8.305], [-75.946, -8.399], [-75.979, -8.655], [-75.922, -8.781], [-75.892, -9.002], [-75.838, -9.062], [-75.796, -9.203], [-75.72, -9.277], [-75.67, -9.418], [-75.493, -9.376], [-75.452, -9.296], [-75.372, -9.31], [-75.28, -9.277], [-75.213, -9.177], [-75.241, -9.1], [-75.206, -9.101], [-75.175, -9.013], [-75.121, -8.985], [-75.123, -8.881], [-74.941, -8.858], [-74.853, -8.764], [-74.847, -8.661], [-74.618, -8.549], [-74.547, -8.585], [-74.525, -8.749], [-74.618, -8.832], [-74.678, -9.094], [-74.637, -9.126], [-74.589, -9.303], [-74.709, -9.422], [-74.676, -9.447], [-74.729, -9.472], [-74.736, -9.576], [-74.822, -9.677], [-74.835, -9.847], [-74.882, -9.82], [-74.986, -9.864], [-75.057, -9.819], [-75.16, -9.84], [-75.308, -9.775], [-75.282, -9.865], [-75.4, -9.878], [-75.405, -9.93], [-75.45, -9.942], [-75.468, -9.989], [-75.596, -9.954], [-75.603, -10.025], [-75.675, -10.052], [-75.709, -10.215], [-75.84, -10.258], [-75.924, -10.356], [-75.976, -10.479], [-76.058, -10.465], [-76.205, -10.377], [-76.231, -10.372], [-76.226, -10.397], [-76.269, -10.369], [-76.306, -10.412], [-76.342, -10.286], [-76.493, -10.31], [-76.491, -10.379], [-76.578, -10.376], [-76.725, -10.478], [-76.77, -10.465], [-76.806, -10.392], [-76.866, -10.375], [-76.916, -10.225], [-76.915, -10.12], [-76.807, -10.084], [-76.814, -9.96], [-76.941, -9.706], [-76.981, -9.725], [-76.974, -9.76], [-77.049, -9.65], [-76.955, -9.56], [-76.935, -9.399], [-76.847, -9.264], [-76.758, -9.362], [-76.735, -9.209], [-76.79, -9.136], [-76.98, -9.063], [-77.11, -8.97], [-77.248, -8.727], [-77.261, -8.649], [-77.293, -8.638], [-77.317, -8.53], [-77.264, -8.468], [-77.204, -8.486], [-77.134, -8.44], [-77.14, -8.48], [-77.081, -8.488], [-77.092, -8.517], [-77.05, -8.554], [-76.865, -8.566], [-76.804, -8.511], [-76.696, -8.532], [-76.548, -8.498], [-76.493, -8.576], [-76.418, -8.444], [-76.367, -8.412], [-76.332, -8.432], [-76.325, -8.525], [-76.264, -8.61], [-76.223, -8.785], [-76.167, -8.756], [-76.108, -8.65], [-76.135, -8.573], [-76.108, -8.398], [-76.128, -8.358], [-76.002, -8.305]]]}}, {"type": "Feature", "properties": {"dep": "Ica", "u": "11"}, "geometry": {"type": "Polygon", "coordinates": [[[-75.063, -14.135], [-75.089, -14.23], [-75.032, -14.266], [-75.094, -14.312], [-75.14, -14.416], [-75.053, -14.431], [-75.098, -14.485], [-75.06, -14.623], [-74.959, -14.606], [-74.895, -14.545], [-74.86, -14.607], [-74.788, -14.616], [-74.847, -14.666], [-74.846, -14.708], [-74.803, -14.752], [-74.716, -14.71], [-74.765, -14.79], [-74.715, -14.817], [-74.755, -14.834], [-74.682, -14.853], [-74.662, -14.898], [-74.685, -14.929], [-74.646, -14.978], [-74.668, -15.053], [-74.929, -15.192], [-75.073, -15.443], [-75.195, -15.368], [-75.152, -15.335], [-75.26, -15.254], [-75.219, -15.25], [-75.232, -15.203], [-75.317, -15.15], [-75.371, -15.153], [-75.51, -14.911], [-75.916, -14.659], [-75.972, -14.47], [-76.142, -14.335], [-76.105, -14.314], [-76.138, -14.234], [-76.226, -14.15], [-76.271, -14.143], [-76.272, -14.2], [-76.293, -14.163], [-76.292, -14.089], [-76.261, -14.055], [-76.284, -13.908], [-76.396, -13.909], [-76.365, -13.803], [-76.296, -13.793], [-76.312, -13.847], [-76.251, -13.853], [-76.187, -13.55], [-76.193, -13.423], [-76.245, -13.324], [-76.203, -13.302], [-76.155, -13.192], [-75.969, -13.042], [-75.961, -13.001], [-75.827, -13.029], [-75.802, -13.06], [-75.765, -13.018], [-75.691, -13.035], [-75.609, -12.968], [-75.629, -13.057], [-75.658, -13.082], [-75.687, -13.043], [-75.719, -13.11], [-75.689, -13.214], [-75.706, -13.288], [-75.788, -13.335], [-75.809, -13.397], [-75.689, -13.44], [-75.599, -13.39], [-75.539, -13.405], [-75.5, -13.355], [-75.466, -13.434], [-75.519, -13.603], [-75.485, -13.655], [-75.555, -13.75], [-75.525, -13.818], [-75.56, -13.871], [-75.434, -13.914], [-75.329, -14.018], [-75.235, -14.003], [-75.261, -14.041], [-75.166, -14.073], [-75.109, -14.033], [-75.063, -14.135]]]}}, {"type": "Feature", "properties": {"dep": "Junin", "u": "12"}, "geometry": {"type": "Polygon", "coordinates": [[[-74.795, -10.83], [-74.508, -10.95], [-74.498, -10.999], [-74.374, -11.057], [-74.203, -11.021], [-74.191, -10.986], [-74.007, -10.991], [-73.976, -11.125], [-73.873, -11.17], [-73.861, -10.974], [-73.782, -10.751], [-73.742, -10.734], [-73.562, -10.858], [-73.573, -10.954], [-73.543, -11.047], [-73.471, -11.087], [-73.45, -11.236], [-73.485, -11.35], [-73.42, -11.384], [-73.48, -11.47], [-73.45, -11.532], [-73.56, -11.592], [-73.612, -11.68], [-73.572, -11.743], [-73.578, -11.836], [-73.507, -11.865], [-73.443, -11.939], [-73.362, -12.136], [-73.44, -12.152], [-73.47, -12.237], [-73.574, -12.277], [-73.604, -12.387], [-73.657, -12.36], [-73.705, -12.269], [-73.825, -12.244], [-73.972, -12.294], [-73.981, -12.244], [-74.002, -12.284], [-74.04, -12.261], [-74.097, -12.284], [-74.121, -12.334], [-74.215, -12.303], [-74.291, -12.223], [-74.336, -12.216], [-74.351, -12.138], [-74.454, -12.034], [-74.572, -11.985], [-74.658, -11.993], [-74.717, -12.059], [-74.749, -12.041], [-74.837, -12.071], [-75.048, -11.999], [-75.086, -12.055], [-75.049, -12.201], [-75.1, -12.251], [-75.131, -12.379], [-75.154, -12.396], [-75.182, -12.36], [-75.22, -12.39], [-75.216, -12.463], [-75.325, -12.487], [-75.415, -12.628], [-75.461, -12.631], [-75.467, -12.683], [-75.525, -12.619], [-75.58, -12.641], [-75.536, -12.517], [-75.567, -12.41], [-75.549, -12.364], [-75.671, -12.193], [-75.635, -12.115], [-75.688, -12.082], [-75.694, -12.043], [-75.766, -12.06], [-75.819, -12.014], [-75.992, -11.995], [-76.053, -11.948], [-76.058, -11.88], [-76.202, -11.728], [-76.188, -11.593], [-76.227, -11.554], [-76.298, -11.596], [-76.377, -11.501], [-76.377, -11.444], [-76.479, -11.291], [-76.457, -11.273], [-76.491, -11.247], [-76.518, -11.116], [-76.392, -11.07], [-76.32, -11.09], [-76.308, -11.133], [-76.216, -11.15], [-76.249, -11.107], [-76.276, -10.919], [-76.114, -11.11], [-76.068, -11.114], [-76.011, -11.032], [-76.123, -10.963], [-75.997, -10.822], [-75.936, -10.89], [-75.838, -10.886], [-75.789, -10.825], [-75.732, -10.809], [-75.679, -10.84], [-75.606, -10.822], [-75.568, -10.727], [-75.478, -10.781], [-75.46, -10.75], [-75.395, -10.759], [-75.41, -10.846], [-75.387, -10.865], [-75.349, -10.801], [-75.283, -10.841], [-75.244, -10.764], [-75.157, -10.76], [-75.065, -10.653], [-75.013, -10.679], [-74.983, -10.75], [-74.956, -10.733], [-74.885, -10.771], [-74.878, -10.701], [-74.795, -10.83]]]}}, {"type": "Feature", "properties": {"dep": "La Libertad", "u": "13"}, "geometry": {"type": "Polygon", "coordinates": [[[-76.927, -8.359], [-77.204, -8.486], [-77.264, -8.468], [-77.335, -8.533], [-77.438, -8.422], [-77.491, -8.283], [-77.575, -8.23], [-77.557, -8.194], [-77.636, -8.109], [-77.619, -8.08], [-77.647, -8.05], [-77.786, -8.079], [-77.896, -8.062], [-77.933, -8.197], [-78.019, -8.224], [-78.119, -8.313], [-78.158, -8.48], [-78.217, -8.558], [-78.204, -8.629], [-78.552, -8.775], [-78.59, -8.943], [-78.645, -8.969], [-78.652, -8.914], [-78.761, -8.774], [-78.737, -8.712], [-78.761, -8.595], [-78.935, -8.436], [-78.896, -8.379], [-78.984, -8.213], [-79.307, -7.926], [-79.465, -7.717], [-79.437, -7.674], [-79.577, -7.462], [-79.599, -7.287], [-79.691, -7.177], [-79.508, -6.97], [-79.401, -6.957], [-79.323, -7.026], [-79.305, -7.147], [-79.252, -7.198], [-79.269, -7.278], [-79.366, -7.332], [-79.232, -7.391], [-79.194, -7.374], [-79.155, -7.439], [-79.065, -7.473], [-79.041, -7.6], [-78.995, -7.659], [-78.961, -7.658], [-78.913, -7.551], [-78.851, -7.523], [-78.887, -7.484], [-78.795, -7.398], [-78.78, -7.424], [-78.664, -7.404], [-78.63, -7.446], [-78.65, -7.527], [-78.625, -7.549], [-78.491, -7.555], [-78.416, -7.485], [-78.328, -7.497], [-78.383, -7.63], [-78.348, -7.686], [-78.276, -7.72], [-78.281, -7.747], [-78.221, -7.763], [-78.219, -7.724], [-78.171, -7.713], [-78.128, -7.653], [-78.081, -7.696], [-77.963, -7.674], [-77.913, -7.625], [-77.923, -7.6], [-77.868, -7.583], [-77.857, -7.524], [-77.743, -7.472], [-77.825, -7.378], [-77.849, -7.236], [-77.926, -7.155], [-78.001, -6.987], [-77.986, -6.963], [-77.842, -6.977], [-77.779, -6.941], [-77.707, -7.069], [-77.713, -7.108], [-77.616, -7.178], [-77.606, -7.219], [-77.647, -7.243], [-77.63, -7.413], [-77.521, -7.51], [-77.54, -7.576], [-77.486, -7.604], [-77.539, -7.649], [-77.459, -7.687], [-77.525, -7.768], [-77.443, -7.814], [-77.411, -7.901], [-77.377, -7.909], [-77.407, -7.992], [-77.385, -8.055], [-77.297, -8.063], [-77.232, -8.012], [-77.102, -8.027], [-77.024, -8.049], [-76.909, -8.165], [-76.927, -8.359]]]}}, {"type": "Feature", "properties": {"dep": "Lambayeque", "u": "14"}, "geometry": {"type": "Polygon", "coordinates": [[[-79.497, -5.915], [-79.418, -6.003], [-79.349, -5.98], [-79.319, -6.043], [-79.3, -5.985], [-79.224, -6.055], [-79.204, -6.024], [-79.177, -6.037], [-79.182, -6.089], [-79.234, -6.093], [-79.273, -6.148], [-79.249, -6.224], [-79.354, -6.304], [-79.423, -6.31], [-79.457, -6.371], [-79.421, -6.535], [-79.37, -6.521], [-79.336, -6.602], [-79.362, -6.636], [-79.291, -6.677], [-79.229, -6.671], [-79.188, -6.717], [-79.143, -6.7], [-79.121, -6.777], [-79.311, -6.901], [-79.297, -7.0], [-79.32, -7.025], [-79.455, -6.946], [-79.691, -7.177], [-79.686, -7.12], [-79.932, -6.873], [-79.995, -6.74], [-80.19, -6.598], [-80.627, -6.372], [-80.335, -5.954], [-80.124, -5.891], [-80.058, -5.819], [-80.103, -5.762], [-80.094, -5.704], [-80.061, -5.684], [-80.053, -5.564], [-79.961, -5.582], [-79.946, -5.515], [-79.902, -5.481], [-79.854, -5.53], [-79.82, -5.664], [-79.792, -5.646], [-79.744, -5.678], [-79.766, -5.708], [-79.717, -5.742], [-79.737, -5.838], [-79.683, -5.846], [-79.623, -5.798], [-79.637, -5.856], [-79.6, -5.94], [-79.497, -5.915]]]}}, {"type": "Feature", "properties": {"dep": "Lima", "u": "15"}, "geometry": {"type": "MultiPolygon", "coordinates": [[[[-76.727, -10.484], [-76.633, -10.785], [-76.584, -10.853], [-76.579, -11.015], [-76.491, -11.089], [-76.519, -11.118], [-76.491, -11.247], [-76.457, -11.273], [-76.479, -11.291], [-76.377, -11.444], [-76.377, -11.501], [-76.298, -11.596], [-76.227, -11.554], [-76.188, -11.593], [-76.198, -11.738], [-76.058, -11.88], [-76.053, -11.948], [-76.014, -11.984], [-75.884, -11.994], [-75.766, -12.06], [-75.742, -12.037], [-75.674, -12.058], [-75.688, -12.082], [-75.627, -12.135], [-75.671, -12.193], [-75.549, -12.364], [-75.567, -12.41], [-75.536, -12.517], [-75.579, -12.595], [-75.552, -12.685], [-75.577, -12.715], [-75.507, -12.777], [-75.531, -12.822], [-75.613, -12.86], [-75.636, -12.916], [-75.614, -12.965], [-75.691, -13.035], [-75.765, -13.018], [-75.802, -13.06], [-75.827, -13.029], [-75.961, -13.001], [-75.969, -13.042], [-76.155, -13.192], [-76.203, -13.302], [-76.245, -13.324], [-76.489, -13.031], [-76.519, -12.85], [-76.636, -12.743], [-76.71, -12.574], [-76.804, -12.509], [-76.779, -12.392], [-76.855, -12.3], [-77.037, -12.206], [-77.029, -12.136], [-77.111, -12.08], [-77.078, -12.047], [-77.129, -11.938], [-77.096, -11.95], [-77.092, -11.883], [-77.127, -11.818], [-77.188, -11.829], [-77.198, -11.769], [-77.17, -11.739], [-77.208, -11.648], [-77.283, -11.586], [-77.343, -11.475], [-77.654, -11.292], [-77.647, -11.222], [-77.602, -11.214], [-77.592, -11.182], [-77.662, -11.013], [-77.658, -10.947], [-77.886, -10.612], [-77.84, -10.568], [-77.771, -10.572], [-77.798, -10.476], [-77.75, -10.407], [-77.753, -10.322], [-77.65, -10.345], [-77.632, -10.322], [-77.598, -10.366], [-77.687, -10.434], [-77.746, -10.552], [-77.601, -10.509], [-77.645, -10.583], [-77.62, -10.614], [-77.574, -10.588], [-77.589, -10.646], [-77.563, -10.709], [-77.591, -10.786], [-77.522, -10.735], [-77.394, -10.717], [-77.395, -10.662], [-77.292, -10.557], [-77.191, -10.552], [-77.175, -10.465], [-77.002, -10.282], [-76.965, -10.305], [-76.906, -10.274], [-76.866, -10.375], [-76.84, -10.363], [-76.8, -10.44], [-76.727, -10.484]]], [[[-76.799, -12.472], [-76.8, -12.479], [-76.803, -12.476], [-76.799, -12.472]]]]}}, {"type": "Feature", "properties": {"dep": "Loreto", "u": "16"}, "geometry": {"type": "Polygon", "coordinates": [[[-73.987, -7.532], [-74.039, -7.449], [-74.142, -7.378], [-74.342, -7.345], [-74.5, -7.262], [-74.643, -7.5], [-74.643, -7.562], [-74.576, -7.639], [-74.582, -7.706], [-74.516, -7.777], [-74.57, -7.816], [-74.628, -7.94], [-74.888, -8.084], [-74.982, -7.969], [-75.033, -7.95], [-75.145, -7.98], [-75.235, -8.15], [-75.344, -8.129], [-75.439, -8.175], [-75.51, -8.335], [-75.419, -8.451], [-75.572, -8.445], [-75.618, -8.408], [-75.687, -8.423], [-75.716, -8.487], [-75.799, -8.512], [-75.779, -8.548], [-75.817, -8.636], [-75.946, -8.715], [-75.98, -8.636], [-75.946, -8.399], [-75.986, -8.325], [-75.927, -8.307], [-75.913, -8.256], [-75.952, -8.101], [-75.845, -8.06], [-75.829, -7.973], [-75.859, -7.921], [-75.993, -7.954], [-75.98, -7.901], [-76.102, -7.723], [-76.08, -7.584], [-76.204, -7.431], [-76.213, -7.31], [-76.011, -7.078], [-76.008, -7.002], [-76.052, -6.938], [-76.011, -6.89], [-76.051, -6.811], [-75.844, -6.797], [-75.698, -6.869], [-75.66, -6.819], [-75.617, -6.841], [-75.502, -6.77], [-75.51, -6.492], [-75.55, -6.348], [-75.496, -6.281], [-75.487, -6.203], [-75.526, -6.165], [-75.569, -6.0], [-75.621, -6.029], [-75.637, -6.089], [-75.77, -6.148], [-75.807, -6.102], [-75.85, -6.101], [-75.838, -6.141], [-75.917, -6.141], [-76.013, -6.084], [-76.146, -6.147], [-76.247, -6.126], [-76.318, -6.086], [-76.4, -5.954], [-76.429, -6.002], [-76.481, -6.014], [-76.75, -6.003], [-76.747, -5.954], [-76.821, -5.858], [-76.835, -5.746], [-76.894, -5.747], [-76.996, -5.667], [-77.202, -5.634], [-77.232, -5.595], [-77.338, -5.603], [-77.372, -5.567], [-77.461, -5.585], [-77.508, -5.551], [-77.492, -5.52], [-77.558, -5.426], [-77.595, -5.464], [-77.696, -5.411], [-77.684, -5.296], [-77.74, -5.213], [-77.696, -5.164], [-77.821, -5.089], [-77.825, -5.032], [-77.758, -4.95], [-77.799, -4.825], [-77.79, -4.747], [-77.672, -4.629], [-77.655, -4.519], [-77.589, -4.48], [-77.568, -4.421], [-77.586, -4.251], [-77.538, -3.962], [-77.563, -3.875], [-77.652, -3.782], [-77.616, -3.708], [-77.62, -3.622], [-77.716, -3.542], [-77.773, -3.429], [-77.813, -2.991], [-76.632, -2.59], [-76.043, -2.127], [-75.583, -1.547], [-75.558, -1.561], [-75.387, -0.93], [-75.297, -0.988], [-75.188, -0.97], [-75.229, -0.941], [-75.223, -0.871], [-75.273, -0.729], [-75.248, -0.696], [-75.271, -0.664], [-75.224, -0.626], [-75.228, -0.551], [-75.313, -0.494], [-75.325, -0.453], [-75.388, -0.434], [-75.531, -0.181], [-75.61, -0.193], [-75.606, -0.11], [-75.517, -0.114], [-75.405, -0.17], [-75.316, -0.16], [-75.18, -0.039], [-74.973, -0.154], [-74.892, -0.237], [-74.782, -0.201], [-74.727, -0.344], [-74.682, -0.33], [-74.661, -0.374], [-74.609, -0.351], [-74.525, -0.469], [-74.425, -0.497], [-74.424, -0.553], [-74.395, -0.542], [-74.373, -0.653], [-74.338, -0.683], [-74.374, -0.732], [-74.313, -0.756], [-74.317, -0.793], [-74.283, -0.778], [-74.285, -0.825], [-74.245, -0.818], [-74.269, -0.879], [-74.32, -0.88], [-74.278, -0.9], [-74.267, -0.982], [-74.064, -1.053], [-74.023, -1.005], [-74.011, -1.093], [-73.962, -1.083], [-73.962, -1.129], [-73.909, -1.122], [-73.857, -1.232], [-73.774, -1.259], [-73.745, -1.2], [-73.735, -1.244], [-73.622, -1.259], [-73.552, -1.4], [-73.585, -1.423], [-73.49, -1.482], [-73.49, -1.569], [-73.457, -1.574], [-73.53, -1.707], [-73.459, -1.736], [-73.432, -1.789], [-73.383, -1.775], [-73.316, -1.827], [-73.295, -1.777], [-73.234, -1.802], [-73.221, -1.749], [-73.186, -1.808], [-73.147, -1.803], [-73.152, -1.858], [-73.107, -1.89], [-73.107, -2.074], [-73.07, -2.088], [-73.13, -2.182], [-73.17, -2.192], [-73.168, -2.229], [-73.115, -2.293], [-73.123, -2.324], [-73.068, -2.315], [-73.061, -2.36], [-73.036, -2.315], [-73.005, -2.358], [-72.966, -2.339], [-72.923, -2.419], [-72.934, -2.455], [-72.776, -2.384], [-72.746, -2.427], [-72.708, -2.389], [-72.681, -2.452], [-72.62, -2.356], [-72.515, -2.427], [-72.428, -2.437], [-72.409, -2.414], [-72.372, -2.489], [-72.26, -2.459], [-72.253, -2.431], [-72.175, -2.43], [-72.15, -2.47], [-72.145, -2.406], [-72.049, -2.335], [-71.922, -2.378], [-71.935, -2.312], [-71.885, -2.312], [-71.833, -2.19], [-71.799, -2.204], [-71.732, -2.14], [-71.723, -2.227], [-71.648, -2.2], [-71.519, -2.249], [-71.5, -2.352], [-71.479, -2.34], [-71.495, -2.278], [-71.458, -2.274], [-71.396, -2.347], [-71.395, -2.407], [-71.272, -2.333], [-71.268, -2.358], [-71.235, -2.337], [-71.176, -2.379], [-71.12, -2.281], [-71.053, -2.271], [-70.996, -2.303], [-71.005, -2.209], [-70.937, -2.254], [-70.872, -2.223], [-70.836, -2.291], [-70.666, -2.354], [-70.678, -2.402], [-70.628, -2.395], [-70.627, -2.476], [-70.554, -2.468], [-70.596, -2.426], [-70.574, -2.417], [-70.511, -2.472], [-70.469, -2.456], [-70.429, -2.525], [-70.362, -2.49], [-70.304, -2.501], [-70.352, -2.569], [-70.256, -2.545], [-70.211, -2.655], [-70.166, -2.636], [-70.135, -2.703], [-70.096, -2.649], [-70.067, -2.678], [-70.074, -2.791], [-70.713, -3.794], [-70.511, -3.875], [-70.354, -3.799], [-70.292, -3.821], [-69.956, -4.208], [-69.98, -4.34], [-70.044, -4.374], [-70.041, -4.335], [-70.079, -4.31], [-70.041, -4.293], [-70.096, -4.288], [-70.109, -4.256], [-70.121, -4.285], [-70.156, -4.275], [-70.153, -4.33], [-70.196, -4.36], [-70.214, -4.298], [-70.26, -4.309], [-70.248, -4.273], [-70.29, -4.288], [-70.307, -4.259], [-70.279, -4.229], [-70.32, -4.143], [-70.341, -4.179], [-70.377, -4.135], [-70.433, -4.131], [-70.434, -4.161], [-70.483, -4.16], [-70.506, -4.199], [-70.511, -4.147], [-70.553, -4.137], [-70.541, -4.155], [-70.574, -4.211], [-70.564, -4.174], [-70.624, -4.191], [-70.618, -4.128], [-70.645, -4.127], [-70.682, -4.207], [-70.758, -4.159], [-70.843, -4.217], [-70.816, -4.227], [-70.863, -4.249], [-70.846, -4.279], [-70.938, -4.383], [-70.993, -4.345], [-70.997, -4.386], [-71.091, -4.373], [-71.115, -4.408], [-71.149, -4.381], [-71.194, -4.423], [-71.203, -4.378], [-71.222, -4.406], [-71.269, -4.384], [-71.275, -4.438], [-71.32, -4.42], [-71.301, -4.444], [-71.307, -4.462], [-71.346, -4.426], [-71.391, -4.427], [-71.433, -4.476], [-71.412, -4.435], [-71.508, -4.438], [-71.493, -4.484], [-71.536, -4.463], [-71.603, -4.528], [-71.633, -4.512], [-71.614, -4.467], [-71.648, -4.503], [-71.654, -4.471], [-71.658, -4.501], [-71.707, -4.51], [-71.752, -4.468], [-71.768, -4.504], [-71.784, -4.482], [-71.865, -4.526], [-71.905, -4.515], [-71.885, -4.538], [-71.919, -4.529], [-71.947, -4.608], [-71.993, -4.608], [-72.007, -4.645], [-72.043, -4.623], [-72.123, -4.732], [-72.139, -4.711], [-72.273, -4.799], [-72.278, -4.771], [-72.327, -4.78], [-72.32, -4.79], [-72.323, -4.812], [-72.371, -4.806], [-72.415, -4.9], [-72.47, -4.891], [-72.451, -4.916], [-72.482, -4.951], [-72.52, -4.933], [-72.522, -4.96], [-72.597, -4.983], [-72.621, -5.052], [-72.729, -5.053], [-72.739, -5.087], [-72.818, -5.103], [-72.815, -5.139], [-72.887, -5.163], [-72.861, -5.272], [-72.958, -5.464], [-72.959, -5.656], [-73.116, -5.864], [-73.152, -5.868], [-73.187, -6.004], [-73.236, -6.036], [-73.247, -6.149], [-73.105, -6.407], [-73.135, -6.51], [-73.188, -6.523], [-73.227, -6.588], [-73.352, -6.593], [-73.38, -6.636], [-73.536, -6.683], [-73.71, -6.84], [-73.8, -7.118], [-73.717, -7.228], [-73.695, -7.311], [-73.755, -7.354], [-73.823, -7.339], [-73.865, -7.389], [-73.95, -7.357], [-73.91, -7.473], [-73.942, -7.533], [-73.987, -7.532]]]}}, {"type": "Feature", "properties": {"dep": "Madre de Dios", "u": "17"}, "geometry": {"type": "Polygon", "coordinates": [[[-68.879, -13.008], [-69.65, -13.342], [-70.403, -13.114], [-70.388, -13.192], [-70.548, -13.154], [-70.599, -13.099], [-70.763, -13.108], [-70.83, -13.067], [-70.899, -13.07], [-70.887, -13.103], [-70.977, -13.17], [-71.014, -13.267], [-71.122, -13.234], [-71.168, -13.094], [-71.161, -12.968], [-71.272, -12.962], [-71.36, -12.883], [-71.416, -12.894], [-71.553, -12.708], [-71.639, -12.71], [-71.747, -12.796], [-71.979, -12.683], [-71.956, -12.655], [-71.981, -12.58], [-72.079, -12.499], [-72.059, -12.437], [-71.976, -12.399], [-71.946, -12.33], [-72.106, -12.238], [-72.094, -12.085], [-72.269, -12.054], [-72.259, -12.006], [-72.34, -11.966], [-72.332, -11.856], [-72.391, -11.826], [-72.371, -11.785], [-72.428, -11.705], [-72.308, -11.588], [-72.293, -11.433], [-72.239, -11.345], [-72.205, -11.347], [-72.205, -11.171], [-72.12, -11.118], [-72.183, -11.093], [-72.185, -11.009], [-72.128, -10.98], [-72.054, -11.011], [-72.009, -10.988], [-71.828, -11.012], [-71.702, -10.974], [-71.354, -10.95], [-71.273, -10.853], [-71.259, -10.785], [-71.222, -10.777], [-71.221, -10.637], [-71.165, -10.531], [-71.03, -10.483], [-70.958, -10.39], [-70.968, -10.336], [-70.889, -10.335], [-70.875, -10.256], [-70.803, -10.251], [-70.706, -10.161], [-70.645, -10.069], [-70.668, -9.972], [-70.614, -9.873], [-70.614, -11.0], [-70.523, -10.934], [-70.438, -11.039], [-70.308, -11.07], [-70.158, -11.041], [-69.934, -10.922], [-69.77, -10.93], [-69.737, -10.975], [-69.569, -10.947], [-69.103, -11.681], [-68.652, -12.503], [-68.741, -12.633], [-68.713, -12.68], [-68.728, -12.714], [-68.804, -12.757], [-68.836, -12.859], [-68.871, -12.87], [-68.879, -13.008]]]}}, {"type": "Feature", "properties": {"dep": "Moquegua", "u": "18"}, "geometry": {"type": "Polygon", "coordinates": [[[-70.152, -16.933], [-70.175, -16.913], [-70.25, -16.949], [-70.244, -16.86], [-70.182, -16.817], [-70.267, -16.771], [-70.441, -16.84], [-70.465, -16.942], [-70.448, -17.08], [-70.49, -17.088], [-70.555, -17.198], [-70.684, -17.225], [-70.746, -17.35], [-70.737, -17.408], [-70.88, -17.555], [-70.912, -17.687], [-70.993, -17.679], [-71.083, -17.718], [-71.139, -17.821], [-71.35, -17.693], [-71.381, -17.707], [-71.342, -17.637], [-71.363, -17.489], [-71.395, -17.389], [-71.491, -17.285], [-71.302, -17.094], [-71.339, -17.022], [-71.386, -17.021], [-71.404, -16.958], [-71.465, -16.954], [-71.424, -16.92], [-71.43, -16.751], [-71.369, -16.72], [-71.328, -16.752], [-71.289, -16.726], [-71.242, -16.463], [-71.048, -16.455], [-71.011, -16.498], [-70.955, -16.472], [-70.986, -16.31], [-70.881, -16.285], [-70.844, -16.236], [-70.895, -16.105], [-70.857, -16.056], [-70.805, -16.055], [-70.82, -15.978], [-70.724, -16.034], [-70.563, -15.984], [-70.508, -16.038], [-70.441, -16.036], [-70.402, -16.149], [-70.325, -16.216], [-70.346, -16.348], [-70.381, -16.387], [-70.325, -16.418], [-70.301, -16.479], [-70.185, -16.537], [-70.166, -16.613], [-70.088, -16.655], [-70.049, -16.628], [-70.005, -16.65], [-69.996, -16.73], [-70.091, -16.812], [-70.094, -16.891], [-70.152, -16.933]]]}}, {"type": "Feature", "properties": {"dep": "Pasco", "u": "19"}, "geometry": {"type": "Polygon", "coordinates": [[[-74.673, -9.45], [-74.581, -9.477], [-74.575, -9.572], [-74.492, -9.595], [-74.453, -9.863], [-74.411, -9.916], [-74.418, -10.027], [-74.377, -10.1], [-74.315, -10.113], [-74.304, -10.164], [-74.23, -10.188], [-74.253, -10.417], [-74.179, -10.489], [-74.136, -10.672], [-74.16, -10.641], [-74.23, -10.635], [-74.35, -10.755], [-74.384, -10.747], [-74.387, -10.813], [-74.483, -10.835], [-74.488, -10.89], [-74.571, -10.916], [-74.795, -10.83], [-74.878, -10.701], [-74.885, -10.771], [-74.956, -10.733], [-74.983, -10.75], [-75.013, -10.679], [-75.065, -10.653], [-75.157, -10.76], [-75.244, -10.764], [-75.283, -10.841], [-75.349, -10.801], [-75.387, -10.865], [-75.41, -10.846], [-75.395, -10.759], [-75.46, -10.75], [-75.478, -10.781], [-75.568, -10.727], [-75.606, -10.822], [-75.679, -10.84], [-75.732, -10.809], [-75.789, -10.825], [-75.838, -10.886], [-75.936, -10.89], [-75.997, -10.822], [-76.123, -10.963], [-76.282, -10.915], [-76.228, -11.156], [-76.308, -11.133], [-76.336, -11.083], [-76.494, -11.089], [-76.579, -11.015], [-76.584, -10.853], [-76.73, -10.508], [-76.697, -10.442], [-76.578, -10.376], [-76.491, -10.379], [-76.493, -10.31], [-76.342, -10.286], [-76.306, -10.412], [-76.269, -10.369], [-76.226, -10.397], [-76.231, -10.372], [-76.205, -10.377], [-76.058, -10.465], [-75.976, -10.479], [-75.924, -10.356], [-75.84, -10.258], [-75.709, -10.215], [-75.675, -10.052], [-75.603, -10.025], [-75.596, -9.954], [-75.468, -9.989], [-75.45, -9.942], [-75.405, -9.93], [-75.4, -9.878], [-75.282, -9.865], [-75.308, -9.775], [-75.16, -9.84], [-75.057, -9.819], [-74.986, -9.864], [-74.882, -9.82], [-74.835, -9.847], [-74.822, -9.677], [-74.736, -9.576], [-74.729, -9.472], [-74.673, -9.45]]]}}, {"type": "Feature", "properties": {"dep": "Piura", "u": "20"}, "geometry": {"type": "Polygon", "coordinates": [[[-80.483, -4.086], [-80.447, -4.122], [-80.449, -4.209], [-80.31, -4.206], [-80.446, -4.368], [-80.439, -4.456], [-80.39, -4.486], [-80.336, -4.467], [-80.22, -4.378], [-80.17, -4.289], [-80.136, -4.285], [-79.964, -4.394], [-79.869, -4.414], [-79.813, -4.491], [-79.628, -4.439], [-79.544, -4.526], [-79.488, -4.531], [-79.489, -4.626], [-79.394, -4.836], [-79.266, -4.968], [-79.21, -4.97], [-79.228, -5.05], [-79.273, -5.059], [-79.378, -5.191], [-79.276, -5.52], [-79.399, -5.539], [-79.371, -5.603], [-79.399, -5.771], [-79.335, -5.894], [-79.365, -5.935], [-79.419, -5.97], [-79.497, -5.915], [-79.6, -5.94], [-79.637, -5.856], [-79.623, -5.798], [-79.683, -5.846], [-79.737, -5.838], [-79.717, -5.742], [-79.766, -5.708], [-79.744, -5.678], [-79.792, -5.646], [-79.82, -5.664], [-79.854, -5.53], [-79.902, -5.481], [-79.946, -5.515], [-79.961, -5.582], [-80.053, -5.564], [-80.061, -5.684], [-80.094, -5.704], [-80.103, -5.762], [-80.058, -5.819], [-80.124, -5.891], [-80.335, -5.954], [-80.627, -6.372], [-80.787, -6.297], [-81.092, -6.082], [-81.14, -6.007], [-81.149, -5.889], [-81.124, -5.843], [-81.068, -5.786], [-81.005, -5.836], [-80.911, -5.829], [-80.86, -5.745], [-80.853, -5.635], [-80.938, -5.446], [-81.193, -5.217], [-81.168, -5.081], [-81.087, -5.08], [-81.062, -5.021], [-81.328, -4.672], [-81.275, -4.572], [-81.303, -4.479], [-81.253, -4.395], [-81.253, -4.273], [-81.042, -4.083], [-80.971, -4.127], [-80.968, -4.173], [-80.736, -4.178], [-80.623, -4.232], [-80.483, -4.086]]]}}, {"type": "Feature", "properties": {"dep": "Puno", "u": "21"}, "geometry": {"type": "MultiPolygon", "coordinates": [[[[-69.645, -17.288], [-69.74, -17.292], [-69.788, -17.236], [-69.851, -17.244], [-70.04, -17.128], [-70.043, -17.058], [-70.147, -16.939], [-70.094, -16.891], [-70.091, -16.812], [-69.996, -16.73], [-70.001, -16.657], [-70.049, -16.628], [-70.088, -16.655], [-70.166, -16.613], [-70.185, -16.537], [-70.301, -16.479], [-70.325, -16.418], [-70.381, -16.387], [-70.346, -16.348], [-70.325, -16.216], [-70.402, -16.149], [-70.441, -16.036], [-70.508, -16.038], [-70.563, -15.984], [-70.724, -16.034], [-70.842, -15.971], [-70.843, -15.923], [-70.894, -15.887], [-70.942, -15.775], [-70.9, -15.714], [-70.918, -15.644], [-71.005, -15.567], [-71.018, -15.5], [-70.993, -15.461], [-71.039, -15.405], [-71.006, -15.335], [-70.95, -15.302], [-70.985, -15.249], [-70.963, -15.216], [-71.004, -14.999], [-70.975, -14.766], [-71.013, -14.74], [-71.053, -14.754], [-71.118, -14.649], [-70.966, -14.568], [-70.999, -14.502], [-70.963, -14.445], [-70.985, -14.379], [-70.912, -14.341], [-70.881, -14.271], [-70.886, -14.171], [-70.822, -14.141], [-70.79, -14.079], [-70.829, -14.076], [-70.862, -14.026], [-70.81, -13.912], [-70.879, -13.816], [-70.854, -13.799], [-70.828, -13.828], [-70.768, -13.814], [-70.71, -13.842], [-70.735, -13.735], [-70.715, -13.662], [-70.663, -13.661], [-70.544, -13.578], [-70.54, -13.533], [-70.453, -13.448], [-70.45, -13.364], [-70.4, -13.372], [-70.396, -13.317], [-70.346, -13.313], [-70.423, -13.255], [-70.384, -13.205], [-70.403, -13.114], [-69.65, -13.342], [-68.872, -13.004], [-68.85, -13.036], [-68.878, -13.136], [-68.845, -13.246], [-68.896, -13.462], [-68.952, -13.603], [-69.005, -13.625], [-68.996, -13.652], [-69.047, -13.645], [-69.067, -13.687], [-68.974, -13.761], [-68.994, -13.788], [-68.918, -13.814], [-68.982, -13.894], [-68.979, -13.977], [-68.89, -14.047], [-68.827, -14.216], [-68.985, -14.237], [-69.015, -14.315], [-68.985, -14.375], [-69.154, -14.522], [-69.15, -14.58], [-69.221, -14.582], [-69.258, -14.683], [-69.24, -14.759], [-69.354, -14.802], [-69.355, -14.971], [-69.277, -15.111], [-69.191, -15.159], [-69.12, -15.26], [-69.176, -15.261], [-69.26, -15.374], [-69.241, -15.46], [-69.29, -15.437], [-69.331, -15.538], [-69.391, -15.507], [-69.378, -15.483], [-69.363, -15.514], [-69.35, -15.51], [-69.376, -15.471], [-69.433, -15.48], [-69.431, -15.503], [-69.522, -15.37], [-69.631, -15.355], [-69.642, -15.282], [-69.687, -15.238], [-69.759, -15.256], [-69.7, -15.31], [-69.751, -15.283], [-69.78, -15.32], [-69.816, -15.275], [-69.821, -15.306], [-69.835, -15.28], [-69.894, -15.295], [-69.873, -15.366], [-69.845, -15.332], [-69.792, -15.352], [-69.874, -15.377], [-69.933, -15.361], [-69.938, -15.415], [-69.805, -15.654], [-69.761, -15.682], [-69.803, -15.674], [-69.744, -15.723], [-69.821, -15.707], [-69.846, -15.636], [-69.906, -15.565], [-69.937, -15.557], [-69.916, -15.627], [-69.967, -15.665], [-69.965, -15.702], [-70.012, -15.687], [-70.034, -15.723], [-70.035, -15.769], [-69.989, -15.819], [-70.015, -15.851], [-69.892, -15.883], [-69.86, -15.932], [-69.778, -15.917], [-69.808, -15.869], [-69.848, -15.867], [-69.843, -15.808], [-69.806, -15.783], [-69.761, -15.912], [-69.702, -15.92], [-69.684, -15.952], [-69.664, -15.97], [-69.538, -15.977], [-69.462, -16.018], [-69.557, -15.963], [-69.672, -15.96], [-69.679, -15.95], [-69.688, -15.934], [-69.69, -15.925], [-69.687, -15.916], [-69.672, -15.957], [-69.563, -15.959], [-69.452, -15.994], [-69.426, -16.078], [-69.43, -16.094], [-69.444, -16.11], [-69.452, -16.114], [-69.432, -16.079], [-69.437, -16.049], [-69.455, -16.047], [-69.515, -16.162], [-69.494, -16.208], [-69.39, -16.18], [-69.376, -16.236], [-69.295, -16.254], [-69.259, -16.3], [-69.234, -16.262], [-69.097, -16.244], [-69.055, -16.197], [-69.013, -16.22], [-68.957, -16.196], [-68.996, -16.274], [-68.99, -16.236], [-69.031, -16.275], [-69.076, -16.258], [-69.022, -16.332], [-69.023, -16.404], [-69.098, -16.491], [-68.996, -16.657], [-69.17, -16.728], [-69.186, -16.798], [-69.394, -17.022], [-69.374, -17.073], [-69.557, -17.159], [-69.645, -17.288]], [[-69.994, -15.113], [-69.99, -15.167], [-70.045, -15.111], [-70.116, -15.168], [-69.899, -15.217], [-69.931, -15.149], [-69.956, -15.175], [-69.994, -15.113]], [[-70.202, -15.709], [-70.201, -15.772], [-70.142, -15.749], [-70.15, -15.713], [-70.202, -15.709]]], [[[-68.918, -16.404], [-68.919, -16.359], [-68.918, -16.233], [-68.814, -16.348], [-68.918, -16.404]]], [[[-68.945, -16.227], [-68.947, -16.244], [-68.953, -16.226], [-68.945, -16.227]]], [[[-69.692, -15.895], [-69.673, -15.909], [-69.669, -15.915], [-69.687, -15.908], [-69.708, -15.918], [-69.692, -15.895]]], [[[-69.823, -15.891], [-69.833, -15.887], [-69.824, -15.881], [-69.823, -15.891]]], [[[-69.696, -15.754], [-69.675, -15.791], [-69.683, -15.798], [-69.696, -15.754]]], [[[-69.727, -15.663], [-69.694, -15.664], [-69.717, -15.68], [-69.727, -15.663]]]]}}, {"type": "Feature", "properties": {"dep": "San Martin", "u": "22"}, "geometry": {"type": "Polygon", "coordinates": [[[-77.743, -5.406], [-77.595, -5.464], [-77.558, -5.426], [-77.492, -5.52], [-77.508, -5.551], [-77.461, -5.585], [-77.372, -5.567], [-77.338, -5.603], [-77.232, -5.595], [-77.202, -5.634], [-76.996, -5.667], [-76.894, -5.747], [-76.835, -5.746], [-76.821, -5.858], [-76.747, -5.954], [-76.753, -6.001], [-76.716, -6.013], [-76.441, -6.007], [-76.4, -5.954], [-76.318, -6.086], [-76.247, -6.126], [-76.146, -6.147], [-76.013, -6.084], [-75.917, -6.141], [-75.838, -6.141], [-75.85, -6.101], [-75.807, -6.102], [-75.77, -6.148], [-75.637, -6.089], [-75.621, -6.029], [-75.569, -6.0], [-75.526, -6.165], [-75.487, -6.203], [-75.496, -6.281], [-75.55, -6.348], [-75.51, -6.492], [-75.502, -6.77], [-75.617, -6.841], [-75.66, -6.819], [-75.698, -6.869], [-75.844, -6.797], [-76.051, -6.811], [-76.011, -6.89], [-76.052, -6.938], [-76.008, -7.002], [-76.011, -7.078], [-76.213, -7.31], [-76.204, -7.431], [-76.08, -7.584], [-76.102, -7.723], [-75.98, -7.901], [-75.993, -7.954], [-75.859, -7.921], [-75.829, -7.973], [-75.845, -8.06], [-75.952, -8.101], [-75.921, -8.3], [-76.128, -8.358], [-76.108, -8.398], [-76.135, -8.573], [-76.108, -8.65], [-76.167, -8.756], [-76.223, -8.785], [-76.264, -8.61], [-76.325, -8.525], [-76.332, -8.432], [-76.367, -8.412], [-76.436, -8.47], [-76.47, -8.571], [-76.495, -8.576], [-76.548, -8.498], [-76.696, -8.532], [-76.804, -8.511], [-76.865, -8.566], [-77.055, -8.551], [-77.092, -8.517], [-77.081, -8.488], [-77.14, -8.48], [-77.134, -8.44], [-76.927, -8.359], [-76.912, -8.159], [-77.024, -8.049], [-77.111, -8.025], [-77.232, -8.012], [-77.297, -8.063], [-77.373, -8.065], [-77.407, -7.992], [-77.377, -7.909], [-77.411, -7.901], [-77.443, -7.814], [-77.525, -7.768], [-77.459, -7.687], [-77.539, -7.649], [-77.486, -7.604], [-77.54, -7.576], [-77.522, -7.507], [-77.63, -7.413], [-77.647, -7.243], [-77.606, -7.219], [-77.616, -7.178], [-77.713, -7.108], [-77.746, -7.02], [-77.759, -6.965], [-77.707, -6.909], [-77.765, -6.798], [-77.732, -6.783], [-77.746, -6.665], [-77.68, -6.674], [-77.612, -6.612], [-77.544, -6.677], [-77.456, -6.681], [-77.407, -6.727], [-77.382, -6.698], [-77.438, -6.603], [-77.394, -6.603], [-77.345, -6.547], [-77.273, -6.407], [-77.287, -6.331], [-77.172, -6.381], [-77.133, -6.302], [-77.211, -6.217], [-77.223, -6.147], [-77.346, -6.114], [-77.395, -6.039], [-77.432, -6.062], [-77.477, -6.0], [-77.538, -6.063], [-77.669, -5.98], [-77.652, -5.935], [-77.682, -5.849], [-77.761, -5.825], [-77.776, -5.708], [-77.736, -5.609], [-77.768, -5.438], [-77.743, -5.406]]]}}, {"type": "Feature", "properties": {"dep": "Tacna", "u": "23"}, "geometry": {"type": "Polygon", "coordinates": [[[-70.173, -16.913], [-70.043, -17.058], [-70.04, -17.128], [-69.943, -17.198], [-69.851, -17.244], [-69.788, -17.236], [-69.731, -17.295], [-69.655, -17.271], [-69.575, -17.293], [-69.467, -17.374], [-69.468, -17.504], [-69.665, -17.66], [-69.796, -17.646], [-69.821, -17.686], [-69.796, -17.862], [-69.747, -17.944], [-69.854, -18.165], [-69.98, -18.27], [-70.051, -18.269], [-70.15, -18.318], [-70.317, -18.31], [-70.377, -18.351], [-70.879, -18.015], [-70.944, -17.914], [-71.097, -17.868], [-71.139, -17.821], [-71.083, -17.718], [-70.993, -17.679], [-70.912, -17.687], [-70.88, -17.555], [-70.737, -17.408], [-70.746, -17.35], [-70.684, -17.225], [-70.555, -17.198], [-70.49, -17.088], [-70.448, -17.08], [-70.465, -16.942], [-70.441, -16.84], [-70.267, -16.771], [-70.182, -16.817], [-70.244, -16.86], [-70.25, -16.949], [-70.173, -16.913]]]}}, {"type": "Feature", "properties": {"dep": "Tumbes", "u": "24"}, "geometry": {"type": "Polygon", "coordinates": [[[-80.444, -3.995], [-80.623, -4.232], [-80.736, -4.178], [-80.968, -4.173], [-80.971, -4.127], [-81.042, -4.083], [-80.964, -3.959], [-80.834, -3.876], [-80.787, -3.748], [-80.575, -3.631], [-80.499, -3.5], [-80.378, -3.493], [-80.327, -3.44], [-80.318, -3.382], [-80.221, -3.439], [-80.245, -3.486], [-80.189, -3.598], [-80.193, -3.775], [-80.127, -3.896], [-80.298, -4.017], [-80.366, -3.982], [-80.444, -3.995]]]}}, {"type": "Feature", "properties": {"dep": "Ucayali", "u": "25"}, "geometry": {"type": "Polygon", "coordinates": [[[-73.982, -7.539], [-73.889, -7.603], [-73.9, -7.641], [-73.838, -7.668], [-73.82, -7.716], [-73.679, -7.781], [-73.678, -7.858], [-73.762, -7.861], [-73.772, -7.91], [-73.617, -8.034], [-73.587, -8.241], [-73.527, -8.27], [-73.541, -8.351], [-73.389, -8.469], [-73.333, -8.473], [-73.341, -8.617], [-73.255, -8.69], [-73.167, -8.698], [-73.059, -8.906], [-73.001, -8.917], [-72.942, -8.984], [-72.958, -9.142], [-73.026, -9.178], [-73.009, -9.222], [-73.074, -9.235], [-73.101, -9.308], [-73.189, -9.363], [-73.204, -9.407], [-72.717, -9.412], [-72.521, -9.491], [-72.358, -9.494], [-72.318, -9.544], [-72.283, -9.54], [-72.288, -9.603], [-72.253, -9.616], [-72.263, -9.751], [-72.151, -9.797], [-72.136, -9.874], [-72.18, -10.0], [-71.375, -10.0], [-71.343, -9.967], [-71.297, -9.992], [-71.221, -9.97], [-71.14, -9.857], [-70.994, -9.817], [-70.964, -9.749], [-70.793, -9.637], [-70.751, -9.561], [-70.655, -9.519], [-70.596, -9.442], [-70.496, -9.425], [-70.525, -9.461], [-70.505, -9.504], [-70.571, -9.533], [-70.556, -9.573], [-70.599, -9.555], [-70.593, -9.623], [-70.525, -9.715], [-70.546, -9.779], [-70.623, -9.821], [-70.614, -9.873], [-70.672, -10.023], [-70.645, -10.069], [-70.79, -10.241], [-70.881, -10.262], [-70.889, -10.335], [-70.968, -10.336], [-70.958, -10.39], [-71.025, -10.478], [-71.165, -10.531], [-71.221, -10.637], [-71.222, -10.777], [-71.259, -10.785], [-71.273, -10.853], [-71.354, -10.95], [-71.702, -10.974], [-71.828, -11.012], [-72.174, -10.996], [-72.183, -11.093], [-72.12, -11.118], [-72.205, -11.171], [-72.205, -11.347], [-72.308, -11.307], [-72.498, -11.395], [-72.548, -11.448], [-72.692, -11.396], [-72.712, -11.348], [-72.822, -11.39], [-72.892, -11.343], [-72.933, -11.35], [-72.926, -11.327], [-72.962, -11.335], [-72.932, -11.309], [-72.977, -11.212], [-73.065, -11.284], [-73.342, -11.311], [-73.409, -11.386], [-73.483, -11.353], [-73.45, -11.236], [-73.471, -11.087], [-73.543, -11.047], [-73.573, -10.954], [-73.56, -10.861], [-73.742, -10.734], [-73.814, -10.8], [-73.813, -10.889], [-73.862, -10.98], [-73.863, -11.169], [-73.976, -11.125], [-74.007, -10.991], [-74.191, -10.986], [-74.203, -11.021], [-74.374, -11.057], [-74.498, -10.999], [-74.508, -10.95], [-74.57, -10.915], [-74.488, -10.89], [-74.483, -10.835], [-74.387, -10.813], [-74.384, -10.747], [-74.35, -10.755], [-74.23, -10.635], [-74.131, -10.655], [-74.179, -10.489], [-74.253, -10.417], [-74.23, -10.188], [-74.304, -10.164], [-74.315, -10.113], [-74.367, -10.113], [-74.418, -10.027], [-74.411, -9.916], [-74.453, -9.863], [-74.492, -9.595], [-74.575, -9.572], [-74.581, -9.477], [-74.709, -9.422], [-74.587, -9.297], [-74.637, -9.126], [-74.678, -9.094], [-74.618, -8.832], [-74.527, -8.755], [-74.547, -8.585], [-74.63, -8.55], [-74.847, -8.661], [-74.853, -8.764], [-74.941, -8.858], [-75.123, -8.881], [-75.121, -8.985], [-75.175, -9.013], [-75.206, -9.101], [-75.241, -9.1], [-75.213, -9.177], [-75.28, -9.277], [-75.372, -9.31], [-75.452, -9.296], [-75.488, -9.373], [-75.601, -9.414], [-75.67, -9.418], [-75.72, -9.277], [-75.796, -9.203], [-75.838, -9.062], [-75.892, -9.002], [-75.948, -8.721], [-75.891, -8.66], [-75.817, -8.636], [-75.779, -8.548], [-75.799, -8.512], [-75.716, -8.487], [-75.687, -8.423], [-75.618, -8.408], [-75.572, -8.445], [-75.419, -8.451], [-75.51, -8.335], [-75.439, -8.175], [-75.344, -8.129], [-75.235, -8.15], [-75.145, -7.98], [-75.033, -7.95], [-74.982, -7.969], [-74.888, -8.084], [-74.628, -7.94], [-74.57, -7.816], [-74.516, -7.777], [-74.582, -7.706], [-74.576, -7.639], [-74.643, -7.562], [-74.643, -7.5], [-74.5, -7.262], [-74.342, -7.345], [-74.142, -7.378], [-74.039, -7.449], [-73.982, -7.539]]]}}]}